CCSDS_OMM_VERS = 2.0
CREATION_DATE  = 
ORIGINATOR     = 

OBJECT_NAME    = SL-14 R/B
OBJECT_ID      = 1991-042B
CENTER_NAME    = EARTH
REF_FRAME      = TEME
TIME_SYSTEM    = UTC
MEAN_ELEMENT_THEORY = SGP/SGP4

EPOCH          = 2026-02-10T22:47:40.401024
MEAN_MOTION    = 14.81803331
ECCENTRICITY   = .00164057
INCLINATION    = 82.4898
RA_OF_ASC_NODE = 245.2627
ARG_OF_PERICENTER = 333.7928
MEAN_ANOMALY   = 26.2454

EPHEMERIS_TYPE = 0
CLASSIFICATION_TYPE = U
NORAD_CAT_ID   = 21423
ELEMENT_SET_NO = 999
REV_AT_EPOCH   = 84911
BSTAR          = .5044177E-4
MEAN_MOTION_DOT = .422E-5
MEAN_MOTION_DDOT = 0

CCSDS_OMM_VERS = 2.0
CREATION_DATE  = 
ORIGINATOR     = 

OBJECT_NAME    = ERS-1
OBJECT_ID      = 1991-050A
CENTER_NAME    = EARTH
REF_FRAME      = TEME
TIME_SYSTEM    = UTC
MEAN_ELEMENT_THEORY = SGP/SGP4

EPOCH          = 2026-02-10T22:27:00.322560
MEAN_MOTION    = 14.39427322
ECCENTRICITY   = .00309055
INCLINATION    = 98.7895
RA_OF_ASC_NODE = 59.4972
ARG_OF_PERICENTER = 282.0727
MEAN_ANOMALY   = 77.6997

EPHEMERIS_TYPE = 0
CLASSIFICATION_TYPE = U
NORAD_CAT_ID   = 21574
ELEMENT_SET_NO = 999
REV_AT_EPOCH   = 81188
BSTAR          = .13643732E-3
MEAN_MOTION_DOT = .38E-5
MEAN_MOTION_DDOT = 0

CCSDS_OMM_VERS = 2.0
CREATION_DATE  = 
ORIGINATOR     = 

OBJECT_NAME    = ARIANE 40 R/B
OBJECT_ID      = 1991-050F
CENTER_NAME    = EARTH
REF_FRAME      = TEME
TIME_SYSTEM    = UTC
MEAN_ELEMENT_THEORY = SGP/SGP4

EPOCH          = 2026-02-10T15:12:49.493088
MEAN_MOTION    = 14.42873345
ECCENTRICITY   = .00038814
INCLINATION    = 98.2072
RA_OF_ASC_NODE = 94.8781
ARG_OF_PERICENTER = 140.8090
MEAN_ANOMALY   = 219.3382

EPHEMERIS_TYPE = 0
CLASSIFICATION_TYPE = U
NORAD_CAT_ID   = 21610
ELEMENT_SET_NO = 999
REV_AT_EPOCH   = 81509
BSTAR          = .11030306E-3
MEAN_MOTION_DOT = .327E-5
MEAN_MOTION_DDOT = 0

CCSDS_OMM_VERS = 2.0
CREATION_DATE  = 
ORIGINATOR     = 

OBJECT_NAME    = INTERCOSMOS 25
OBJECT_ID      = 1991-086A
CENTER_NAME    = EARTH
REF_FRAME      = TEME
TIME_SYSTEM    = UTC
MEAN_ELEMENT_THEORY = SGP/SGP4

EPOCH          = 2026-02-10T19:48:13.553568
MEAN_MOTION    = 12.11924596
ECCENTRICITY   = .14868265
INCLINATION    = 82.6085
RA_OF_ASC_NODE = 326.2419
ARG_OF_PERICENTER = 174.8064
MEAN_ANOMALY   = 187.0616

EPHEMERIS_TYPE = 0
CLASSIFICATION_TYPE = U
NORAD_CAT_ID   = 21819
ELEMENT_SET_NO = 999
REV_AT_EPOCH   = 49343
BSTAR          = .29615903E-3
MEAN_MOTION_DOT = .1526E-4
MEAN_MOTION_DDOT = 0

CCSDS_OMM_VERS = 2.0
CREATION_DATE  = 
ORIGINATOR     = 

OBJECT_NAME    = SL-8 R/B
OBJECT_ID      = 1992-008B
CENTER_NAME    = EARTH
REF_FRAME      = TEME
TIME_SYSTEM    = UTC
MEAN_ELEMENT_THEORY = SGP/SGP4

EPOCH          = 2026-02-10T16:05:32.856288
MEAN_MOTION    = 13.75969670
ECCENTRICITY   = .00339102
INCLINATION    = 82.9260
RA_OF_ASC_NODE = 287.8790
ARG_OF_PERICENTER = 208.3722
MEAN_ANOMALY   = 209.9874

EPHEMERIS_TYPE = 0
CLASSIFICATION_TYPE = U
NORAD_CAT_ID   = 21876
ELEMENT_SET_NO = 999
REV_AT_EPOCH   = 70570
BSTAR          = .1485824E-4
MEAN_MOTION_DOT = .3E-6
MEAN_MOTION_DDOT = 0

CCSDS_OMM_VERS = 2.0
CREATION_DATE  = 
ORIGINATOR     = 

OBJECT_NAME    = SL-8 R/B
OBJECT_ID      = 1992-020B
CENTER_NAME    = EARTH
REF_FRAME      = TEME
TIME_SYSTEM    = UTC
MEAN_ELEMENT_THEORY = SGP/SGP4

EPOCH          = 2026-02-10T20:40:52.740192
MEAN_MOTION    = 13.75545664
ECCENTRICITY   = .00291713
INCLINATION    = 82.9333
RA_OF_ASC_NODE = 173.6742
ARG_OF_PERICENTER = 15.3314
MEAN_ANOMALY   = 96.8208

EPHEMERIS_TYPE = 0
CLASSIFICATION_TYPE = U
NORAD_CAT_ID   = 21938
ELEMENT_SET_NO = 999
REV_AT_EPOCH   = 69744
BSTAR          = .11822693E-3
MEAN_MOTION_DOT = .129E-5
MEAN_MOTION_DDOT = 0

CCSDS_OMM_VERS = 2.0
CREATION_DATE  = 
ORIGINATOR     = 

OBJECT_NAME    = USA 81
OBJECT_ID      = 1992-023A
CENTER_NAME    = EARTH
REF_FRAME      = TEME
TIME_SYSTEM    = UTC
MEAN_ELEMENT_THEORY = SGP/SGP4

EPOCH          = 2026-02-10T20:00:01.041696
MEAN_MOTION    = 14.32358167
ECCENTRICITY   = .00026729
INCLINATION    = 85.0120
RA_OF_ASC_NODE = 146.9270
ARG_OF_PERICENTER = 101.7003
MEAN_ANOMALY   = 258.4490

EPHEMERIS_TYPE = 0
CLASSIFICATION_TYPE = U
NORAD_CAT_ID   = 21949
ELEMENT_SET_NO = 999
REV_AT_EPOCH   = 9094
BSTAR          = .76348921E-4
MEAN_MOTION_DOT = .226E-5
MEAN_MOTION_DDOT = 0

CCSDS_OMM_VERS = 2.0
CREATION_DATE  = 
ORIGINATOR     = 

OBJECT_NAME    = COSMOS 2219
OBJECT_ID      = 1992-076A
CENTER_NAME    = EARTH
REF_FRAME      = TEME
TIME_SYSTEM    = UTC
MEAN_ELEMENT_THEORY = SGP/SGP4

EPOCH          = 2026-02-10T11:58:25.658976
MEAN_MOTION    = 14.14076498
ECCENTRICITY   = .00202472
INCLINATION    = 71.0581
RA_OF_ASC_NODE = 74.9130
ARG_OF_PERICENTER = 244.2668
MEAN_ANOMALY   = 115.6365

EPHEMERIS_TYPE = 0
CLASSIFICATION_TYPE = U
NORAD_CAT_ID   = 22219
ELEMENT_SET_NO = 999
REV_AT_EPOCH   = 71453
BSTAR          = .4076982E-5
MEAN_MOTION_DOT = -.39E-6
MEAN_MOTION_DDOT = 0

CCSDS_OMM_VERS = 2.0
CREATION_DATE  = 
ORIGINATOR     = 

OBJECT_NAME    = SL-16 R/B
OBJECT_ID      = 1992-076B
CENTER_NAME    = EARTH
REF_FRAME      = TEME
TIME_SYSTEM    = UTC
MEAN_ELEMENT_THEORY = SGP/SGP4

EPOCH          = 2026-02-10T22:45:31.182912
MEAN_MOTION    = 14.16856001
ECCENTRICITY   = .00113953
INCLINATION    = 70.9978
RA_OF_ASC_NODE = 244.7044
ARG_OF_PERICENTER = 144.3993
MEAN_ANOMALY   = 322.8524

EPHEMERIS_TYPE = 0
CLASSIFICATION_TYPE = U
NORAD_CAT_ID   = 22220
ELEMENT_SET_NO = 999
REV_AT_EPOCH   = 71804
BSTAR          = -.4976319E-5
MEAN_MOTION_DOT = -.58E-6
MEAN_MOTION_DDOT = 0

CCSDS_OMM_VERS = 2.0
CREATION_DATE  = 
ORIGINATOR     = 

OBJECT_NAME    = COSMOS 2221
OBJECT_ID      = 1992-080A
CENTER_NAME    = EARTH
REF_FRAME      = TEME
TIME_SYSTEM    = UTC
MEAN_ELEMENT_THEORY = SGP/SGP4

EPOCH          = 2026-02-10T19:38:29.464512
MEAN_MOTION    = 14.96094299
ECCENTRICITY   = .00128401
INCLINATION    = 82.5053
RA_OF_ASC_NODE = 304.8165
ARG_OF_PERICENTER = 285.7693
MEAN_ANOMALY   = 74.2113

EPHEMERIS_TYPE = 0
CLASSIFICATION_TYPE = U
NORAD_CAT_ID   = 22236
ELEMENT_SET_NO = 999
REV_AT_EPOCH   = 77677
BSTAR          = .18189469E-3
MEAN_MOTION_DOT = .2073E-4
MEAN_MOTION_DDOT = 0

CCSDS_OMM_VERS = 2.0
CREATION_DATE  = 
ORIGINATOR     = 

OBJECT_NAME    = SL-16 R/B
OBJECT_ID      = 1992-093B
CENTER_NAME    = EARTH
REF_FRAME      = TEME
TIME_SYSTEM    = UTC
MEAN_ELEMENT_THEORY = SGP/SGP4

EPOCH          = 2026-02-10T12:45:19.268064
MEAN_MOTION    = 14.15441096
ECCENTRICITY   = .00051919
INCLINATION    = 71.0200
RA_OF_ASC_NODE = 61.2795
ARG_OF_PERICENTER = 322.4617
MEAN_ANOMALY   = 37.6143

EPHEMERIS_TYPE = 0
CLASSIFICATION_TYPE = U
NORAD_CAT_ID   = 22285
ELEMENT_SET_NO = 999
REV_AT_EPOCH   = 70931
BSTAR          = .35975849E-4
MEAN_MOTION_DOT = .23E-6
MEAN_MOTION_DDOT = 0

CCSDS_OMM_VERS = 2.0
CREATION_DATE  = 
ORIGINATOR     = 

OBJECT_NAME    = COSMOS 2228
OBJECT_ID      = 1992-094A
CENTER_NAME    = EARTH
REF_FRAME      = TEME
TIME_SYSTEM    = UTC
MEAN_ELEMENT_THEORY = SGP/SGP4

EPOCH          = 2026-02-10T22:03:36.259488
MEAN_MOTION    = 14.97065205
ECCENTRICITY   = .0018947
INCLINATION    = 82.5154
RA_OF_ASC_NODE = 262.9461
ARG_OF_PERICENTER = 35.7157
MEAN_ANOMALY   = 324.5328

EPHEMERIS_TYPE = 0
CLASSIFICATION_TYPE = U
NORAD_CAT_ID   = 22286
ELEMENT_SET_NO = 999
REV_AT_EPOCH   = 77205
BSTAR          = .17148721E-3
MEAN_MOTION_DOT = .2009E-4
MEAN_MOTION_DDOT = 0

