SL-14 R/B               
1 21423U 91042B   26041.94977316  .00000422  00000+0  50442-4 0  9993
2 21423  82.4898 245.2627 0016405 333.7928  26.2454 14.81803331849110
ERS-1                   
1 21574U 91050A   26041.93542040  .00000380  00000+0  13644-3 0  9995
2 21574  98.7895  59.4972 0030905 282.0727  77.6997 14.39427322811886
ARIANE 40 R/B           
1 21610U 91050F   26041.63390617  .00000327  00000+0  11030-3 0  9992
2 21610  98.2072  94.8781 0003881 140.8090 219.3382 14.42873345815091
INTERCOSMOS 25          
1 21819U 91086A   26041.82515687  .00001526  00000+0  29616-3 0  9990
2 21819  82.6085 326.2419 1486826 174.8064 187.0616 12.11924596493436
SL-8 R/B                
1 21876U 92008B   26041.67051917  .00000030  00000+0  14858-4 0  9994
2 21876  82.9260 287.8790 0033910 208.3722 209.9874 13.75969670705705
SL-8 R/B                
1 21938U 92020B   26041.86172153  .00000129  00000+0  11823-3 0  9991
2 21938  82.9333 173.6742 0029171  15.3314  96.8208 13.75545664697449
USA 81                  
1 21949U 92023A   26041.83334539  .00000226  00000+0  76349-4 0  9994
2 21949  85.0120 146.9270 0002672 101.7003 258.4490 14.32358167 90945
COSMOS 2219             
1 22219U 92076A   26041.49890809 -.00000039  00000+0  40770-5 0  9995
2 22219  71.0581  74.9130 0020247 244.2668 115.6365 14.14076498714532
SL-16 R/B               
1 22220U 92076B   26041.94827758 -.00000058  00000+0 -49763-5 0  9993
2 22220  70.9978 244.7044 0011395 144.3993 322.8524 14.16856001718045
COSMOS 2221             
1 22236U 92080A   26041.81839658  .00002073  00000+0  18189-3 0  9996
2 22236  82.5053 304.8165 0012840 285.7693  74.2113 14.96094299776777
SL-16 R/B               
1 22285U 92093B   26041.53147301  .00000023  00000+0  35976-4 0  9997
2 22285  71.0200  61.2795 0005191 322.4617  37.6143 14.15441096709311
COSMOS 2228             
1 22286U 92094A   26041.91916967  .00002009  00000+0  17149-3 0  9990
2 22286  82.5154 262.9461 0018947  35.7157 324.5328 14.97065205772051
